EUTELSAT QUANTUM        
1 49056U 21069B   25317.67784638  .00000126  00000+0  00000+0 0  9996
2 49056   0.0343  83.1167 0003204 169.1917  92.4688  1.00272686 15763
EUTELSAT KONNECT VHTS   
1 53765U 22110A   25317.59759257  .00000017  00000+0  00000+0 0  9995
2 53765   0.0545  99.5939 0003023 109.1257  62.1094  1.00272126  4668
EUTELSAT HOTBIRD 13F    
1 54048U 22134A   25317.59967258  .00000086  00000+0  00000+0 0  9994
2 54048   0.0560 288.3398 0002204  69.6077 283.9004  1.00270178 11215
EUTELSAT HOTBIRD 13G    
1 54225U 22146A   25317.69890891  .00000087  00000+0  00000+0 0  9994
2 54225   0.0457 240.3935 0001848 301.8888 135.4012  1.00271209  5305
EUTELSAT 10B            
1 54259U 22157A   25317.24231839  .00000066  00000+0  00000+0 0  9992
2 54259   0.0573  96.7823 0000968  62.4510 350.5926  1.00269970 10867
EUTELSAT 36D            
1 59346U 24059A   25317.00738935  .00000153  00000+0  00000+0 0  9997
2 59346   0.0198 277.8222 0000645  53.1542 119.9343  1.00270519  5989
